{
  "type": "FeatureCollection",
  "features": [
    {
      "type": "Feature",
      "properties": {
        "norad_id": 43567,
        "name": "GSAT0220 (GALILEO 24)",
        "group": "gnss",
        "lat": 55.11919231082664,
        "lon": 54.13589773883107,
        "alt_km": 23231.091471029256,
        "timestamp": "2025-12-20T22:39:10.873048+00:00",
        "meta_object_name": "GSAT0220 (GALILEO 24)",
        "meta_object_id": "2018-060D",
        "meta_epoch": "2025-12-19T15:28:13.770912",
        "meta_mean_motion": 1.70475932,
        "meta_eccentricity": 0.000607,
        "meta_inclination": 57.2288,
        "meta_ra_of_asc_node": 346.6359,
        "meta_arg_of_pericenter": 288.3471,
        "meta_mean_anomaly": 71.5983,
        "meta_ephemeris_type": 0,
        "meta_classification_type": "U",
        "meta_norad_cat_id": 43567,
        "meta_element_set_no": 999,
        "meta_rev_at_epoch": 4611,
        "meta_bstar": 0,
        "meta_mean_motion_dot": -7.2e-07,
        "meta_mean_motion_ddot": 0,
        "tle_line1": "1 43567U 18060D   25353.64460383 -.00000072  00000+0  00000+0 0  9990",
        "tle_line2": "2 43567  57.2288 346.6359 0006070 288.3471  71.5983  1.70475932 46114"
      },
      "geometry": {
        "type": "Point",
        "coordinates": [
          54.13589773883107,
          55.11919231082664
        ]
      }
    },
    {
      "type": "Feature",
      "properties": {
        "norad_id": 43581,
        "name": "BEIDOU-3 M5 (C23)",
        "group": "gnss",
        "lat": 50.00621183240295,
        "lon": -111.82667334913351,
        "alt_km": 21520.57330001875,
        "timestamp": "2025-12-20T22:39:10.873058+00:00",
        "meta_object_name": "BEIDOU-3 M5 (C23)",
        "meta_object_id": "2018-062A",
        "meta_epoch": "2025-12-20T07:13:15.600000",
        "meta_mean_motion": 1.86228934,
        "meta_eccentricity": 0.00019686,
        "meta_inclination": 54.0899,
        "meta_ra_of_asc_node": 188.386,
        "meta_arg_of_pericenter": 359.6013,
        "meta_mean_anomaly": 0.4548,
        "meta_ephemeris_type": 0,
        "meta_classification_type": "U",
        "meta_norad_cat_id": 43581,
        "meta_element_set_no": 999,
        "meta_rev_at_epoch": 5030,
        "meta_bstar": 0,
        "meta_mean_motion_dot": 9.7e-07,
        "meta_mean_motion_ddot": 0,
        "tle_line1": "1 43581U 18062A   25354.30087500  .00000097  00000+0  00000+0 0  9994",
        "tle_line2": "2 43581  54.0899 188.3860 0001968 359.6013   0.4548  1.86228934 50305"
      },
      "geometry": {
        "type": "Point",
        "coordinates": [
          -111.82667334913351,
          50.00621183240295
        ]
      }
    },
    {
      "type": "Feature",
      "properties": {
        "norad_id": 43582,
        "name": "BEIDOU-3 M6 (C24)",
        "group": "gnss",
        "lat": 13.587586399396134,
        "lon": -1.7347535803088305,
        "alt_km": 21535.89569875999,
        "timestamp": "2025-12-20T22:39:10.873069+00:00",
        "meta_object_name": "BEIDOU-3 M6 (C24)",
        "meta_object_id": "2018-062B",
        "meta_epoch": "2025-12-20T03:56:01.701312",
        "meta_mean_motion": 1.86229954,
        "meta_eccentricity": 0.00078337,
        "meta_inclination": 54.0893,
        "meta_ra_of_asc_node": 188.3797,
        "meta_arg_of_pericenter": 47.8799,
        "meta_mean_anomaly": 312.2437,
        "meta_ephemeris_type": 0,
        "meta_classification_type": "U",
        "meta_norad_cat_id": 43582,
        "meta_element_set_no": 999,
        "meta_rev_at_epoch": 5030,
        "meta_bstar": 0,
        "meta_mean_motion_dot": 9.8e-07,
        "meta_mean_motion_ddot": 0,
        "tle_line1": "1 43582U 18062B   25354.16390858  .00000098  00000+0  00000+0 0  9993",
        "tle_line2": "2 43582  54.0893 188.3797 0007833  47.8799 312.2437  1.86229954 50307"
      },
      "geometry": {
        "type": "Point",
        "coordinates": [
          -1.7347535803088305,
          13.587586399396134
        ]
      }
    },
    {
      "type": "Feature",
      "properties": {
        "norad_id": 43602,
        "name": "BEIDOU-3 M12 (C26)",
        "group": "gnss",
        "lat": -19.801282440156452,
        "lon": 22.16958631301817,
        "alt_km": 21555.791527864432,
        "timestamp": "2025-12-20T22:39:10.873079+00:00",
        "meta_object_name": "BEIDOU-3 M12 (C26)",
        "meta_object_id": "2018-067A",
        "meta_epoch": "2025-12-19T13:33:24.239232",
        "meta_mean_motion": 1.86227856,
        "meta_eccentricity": 0.00092481,
        "meta_inclination": 54.1835,
        "meta_ra_of_asc_node": 187.1314,
        "meta_arg_of_pericenter": 41.3287,
        "meta_mean_anomaly": 318.7989,
        "meta_ephemeris_type": 0,
        "meta_classification_type": "U",
        "meta_norad_cat_id": 43602,
        "meta_element_set_no": 999,
        "meta_rev_at_epoch": 4977,
        "meta_bstar": 0,
        "meta_mean_motion_dot": 1.01e-06,
        "meta_mean_motion_ddot": 0,
        "tle_line1": "1 43602U 18067A   25353.56486388  .00000101  00000+0  00000+0 0  9993",
        "tle_line2": "2 43602  54.1835 187.1314 0009248  41.3287 318.7989  1.86227856 49773"
      },
      "geometry": {
        "type": "Point",
        "coordinates": [
          22.16958631301817,
          -19.801282440156452
        ]
      }
    },
    {
      "type": "Feature",
      "properties": {
        "norad_id": 43603,
        "name": "BEIDOU-3 M11 (C25)",
        "group": "gnss",
        "lat": 47.52163838310397,
        "lon": -45.06339538761058,
        "alt_km": 21519.18971672626,
        "timestamp": "2025-12-20T22:39:10.873089+00:00",
        "meta_object_name": "BEIDOU-3 M11 (C25)",
        "meta_object_id": "2018-067B",
        "meta_epoch": "2025-12-20T05:40:20.265024",
        "meta_mean_motion": 1.86227366,
        "meta_eccentricity": 0.00056565,
        "meta_inclination": 54.1806,
        "meta_ra_of_asc_node": 187.0727,
        "meta_arg_of_pericenter": 37.3238,
        "meta_mean_anomaly": 322.7692,
        "meta_ephemeris_type": 0,
        "meta_classification_type": "U",
        "meta_norad_cat_id": 43603,
        "meta_element_set_no": 999,
        "meta_rev_at_epoch": 4981,
        "meta_bstar": 0,
        "meta_mean_motion_dot": 9.7e-07,
        "meta_mean_motion_ddot": 0,
        "tle_line1": "1 43603U 18067B   25354.23634566  .00000097  00000+0  00000+0 0  9996",
        "tle_line2": "2 43603  54.1806 187.0727 0005656  37.3238 322.7692  1.86227366 49816"
      },
      "geometry": {
        "type": "Point",
        "coordinates": [
          -45.06339538761058,
          47.52163838310397
        ]
      }
    },
    {
      "type": "Feature",
      "properties": {
        "norad_id": 43622,
        "name": "BEIDOU-3 M13 (C32)",
        "group": "gnss",
        "lat": 29.730719404420956,
        "lon": -133.65286052734055,
        "alt_km": 21539.878693607287,
        "timestamp": "2025-12-20T22:39:10.873099+00:00",
        "meta_object_name": "BEIDOU-3 M13 (C32)",
        "meta_object_id": "2018-072A",
        "meta_epoch": "2025-12-19T15:44:25.442592",
        "meta_mean_motion": 1.86231092,
        "meta_eccentricity": 0.0006094,
        "meta_inclination": 56.4653,
        "meta_ra_of_asc_node": 68.5911,
        "meta_arg_of_pericenter": 298.8206,
        "meta_mean_anomaly": 61.1557,
        "meta_ephemeris_type": 0,
        "meta_classification_type": "U",
        "meta_norad_cat_id": 43622,
        "meta_element_set_no": 999,
        "meta_rev_at_epoch": 4931,
        "meta_bstar": 0,
        "meta_mean_motion_dot": -5.1e-07,
        "meta_mean_motion_ddot": 0,
        "tle_line1": "1 43622U 18072A   25353.65585003 -.00000051  00000+0  00000+0 0  9990",
        "tle_line2": "2 43622  56.4653  68.5911 0006094 298.8206  61.1557  1.86231092 49316"
      },
      "geometry": {
        "type": "Point",
        "coordinates": [
          -133.65286052734055,
          29.730719404420956
        ]
      }
    },
    {
      "type": "Feature",
      "properties": {
        "norad_id": 43623,
        "name": "BEIDOU-3 M14 (C33)",
        "group": "gnss",
        "lat": -42.23744464314871,
        "lon": -74.48623707042536,
        "alt_km": 21533.955720194394,
        "timestamp": "2025-12-20T22:39:10.873109+00:00",
        "meta_object_name": "BEIDOU-3 M14 (C33)",
        "meta_object_id": "2018-072B",
        "meta_epoch": "2025-12-20T01:23:54.905568",
        "meta_mean_motion": 1.86231107,
        "meta_eccentricity": 0.00034495,
        "meta_inclination": 56.4671,
        "meta_ra_of_asc_node": 68.5717,
        "meta_arg_of_pericenter": 329.1657,
        "meta_mean_anomaly": 30.8537,
        "meta_ephemeris_type": 0,
        "meta_classification_type": "U",
        "meta_norad_cat_id": 43623,
        "meta_element_set_no": 999,
        "meta_rev_at_epoch": 4931,
        "meta_bstar": 0,
        "meta_mean_motion_dot": -4.7e-07,
        "meta_mean_motion_ddot": 0,
        "tle_line1": "1 43623U 18072B   25354.05827437 -.00000047  00000+0  00000+0 0  9991",
        "tle_line2": "2 43623  56.4671  68.5717 0003449 329.1657  30.8537  1.86231107 49318"
      },
      "geometry": {
        "type": "Point",
        "coordinates": [
          -74.48623707042536,
          -42.23744464314871
        ]
      }
    }
  ]
}